H1 CPF 01  gfz 2022 05 12 12  6321 terrasarx 
H2 0702601  6201 31698    2022 05 12 12 59 42 2022 05 17 00 00 42   120 1 1  0 0 0
H9
10 0 59715  82062.000000  0    1729396.554  -6199488.042   2448550.830
10 0 59715  82182.000000  0    1454760.214  -5881829.942   3269363.216
10 0 59715  82302.000000  0    1161192.347  -5456369.689   4032609.980
10 0 59715  82422.000000  0     855654.139  -4930295.706   4724868.839
10 0 59715  82542.000000  0     545173.002  -4312682.688   5333980.265
10 0 59715  82662.000000  0     236685.450  -3614325.196   5849260.795
10 0 59715  82782.000000  0     -63113.130  -2847538.553   6261686.280
10 0 59715  82902.000000  0    -347910.056  -2025934.243   6564042.775
10 0 59715  83022.000000  0    -611904.968  -1164174.901   6751046.116
10 0 59715  83142.000000  0    -849925.555   -277710.965   6819429.897
10 0 59715  83262.000000  0   -1057527.605    617497.457   6767999.621
10 0 59715  83382.000000  0   -1231077.486   1505267.792   6597651.977
10 0 59715  83502.000000  0   -1367815.426   2369486.738   6311360.053
10 0 59715  83622.000000  0   -1465899.531   3194402.537   5914124.872
10 0 59715  83742.000000  0   -1524429.743   3964913.462   5412892.889
10 0 59715  83862.000000  0   -1543450.430   4666847.594   4816441.043
10 0 59715  83982.000000  0   -1523932.979   5287230.338   4135229.162
10 0 59715  84102.000000  0   -1467737.156   5814532.451   3381220.198
10 0 59715  84222.000000  0   -1377553.589   6238893.228   2567672.550
10 0 59715  84342.000000  0   -1256828.286   6552315.381   1708905.770
10 0 59715  84462.000000  0   -1109667.720   6748824.528    820043.721
10 0 59715  84582.000000  0    -940729.616   6824588.611    -83258.015
10 0 59715  84702.000000  0    -755101.707   6777996.815   -985095.820
10 0 59715  84822.000000  0    -558170.835   6609692.425  -1869609.257
10 0 59715  84942.000000  0    -355487.006   6322556.953  -2721268.893
10 0 59715  85062.000000  0    -152626.413   5921650.652  -3525153.230
10 0 59715  85182.000000  0      44944.179   5414112.347  -4267211.696
10 0 59715  85302.000000  0     231998.622   4809020.199  -4934509.019
10 0 59715  85422.000000  0     403674.828   4117217.348  -5515445.751
10 0 59715  85542.000000  0     555587.684   3351107.129  -5999952.187
10 0 59715  85662.000000  0     683928.478   2524422.247  -6379652.611
10 0 59715  85782.000000  0     785549.589   1651974.368  -6647998.256
10 0 59715  85902.000000  0     858033.252    749389.142  -6800369.391
10 0 59715  86022.000000  0     899742.849   -167170.391  -6834146.703
10 0 59715  86142.000000  0     909856.583  -1081288.089  -6748751.162
10 0 59715  86262.000000  0     888382.552  -1976581.460  -6545651.016
10 0 59715  86382.000000  0     836156.004  -2836986.405  -6228339.384
99
